[Satellite]
VERSION=1.1
NAME=GLOBALSTAR M089 [+]
NICKNAME=GLOBALSTAR M089 [+]
TLE1=1 37744U 11033F   17186.15440456 -.00000097  00000-0  37310-4 0  9990
TLE2=2 37744  51.9945  23.6893 0001202  86.3085  32.0837 12.62265883278199
